CCSDS_OMM_VERS = 2.0
CREATION_DATE  = 
ORIGINATOR     = 

OBJECT_NAME    = STARLINK-36239
OBJECT_ID      = 2025-304E
CENTER_NAME    = EARTH
REF_FRAME      = TEME
TIME_SYSTEM    = UTC
MEAN_ELEMENT_THEORY = SGP/SGP4

EPOCH          = 2026-01-07T12:00:01.999296
MEAN_MOTION    = 15.47899348
ECCENTRICITY   = .0002971
INCLINATION    = 69.9995
RA_OF_ASC_NODE = 335.0842
ARG_OF_PERICENTER = 272.7938
MEAN_ANOMALY   = 334.8232

EPHEMERIS_TYPE = 0
CLASSIFICATION_TYPE = U
NORAD_CAT_ID   = 67196
ELEMENT_SET_NO = 999
REV_AT_EPOCH   = 460
BSTAR          = -.44776E-1
MEAN_MOTION_DOT = -.2080704E-1
MEAN_MOTION_DDOT = 0

CCSDS_OMM_VERS = 2.0
CREATION_DATE  = 
ORIGINATOR     = 

OBJECT_NAME    = STARLINK-36283
OBJECT_ID      = 2025-304F
CENTER_NAME    = EARTH
REF_FRAME      = TEME
TIME_SYSTEM    = UTC
MEAN_ELEMENT_THEORY = SGP/SGP4

EPOCH          = 2026-01-07T12:00:01.999296
MEAN_MOTION    = 15.52562464
ECCENTRICITY   = .0002804
INCLINATION    = 69.9999
RA_OF_ASC_NODE = 335.0728
ARG_OF_PERICENTER = 266.3116
MEAN_ANOMALY   = 353.7289

EPHEMERIS_TYPE = 0
CLASSIFICATION_TYPE = U
NORAD_CAT_ID   = 67197
ELEMENT_SET_NO = 999
REV_AT_EPOCH   = 460
BSTAR          = -.16749E-2
MEAN_MOTION_DOT = -.102051E-2
MEAN_MOTION_DDOT = 0

CCSDS_OMM_VERS = 2.0
CREATION_DATE  = 
ORIGINATOR     = 

OBJECT_NAME    = STARLINK-36267
OBJECT_ID      = 2025-304G
CENTER_NAME    = EARTH
REF_FRAME      = TEME
TIME_SYSTEM    = UTC
MEAN_ELEMENT_THEORY = SGP/SGP4

EPOCH          = 2026-01-07T12:00:01.999296
MEAN_MOTION    = 15.52489095
ECCENTRICITY   = .0002894
INCLINATION    = 69.9999
RA_OF_ASC_NODE = 335.0738
ARG_OF_PERICENTER = 269.2407
MEAN_ANOMALY   = 348.9128

EPHEMERIS_TYPE = 0
CLASSIFICATION_TYPE = U
NORAD_CAT_ID   = 67198
ELEMENT_SET_NO = 999
REV_AT_EPOCH   = 457
BSTAR          = .37695E-3
MEAN_MOTION_DOT = .23064E-3
MEAN_MOTION_DDOT = 0

CCSDS_OMM_VERS = 2.0
CREATION_DATE  = 
ORIGINATOR     = 

OBJECT_NAME    = STARLINK-36268
OBJECT_ID      = 2025-304H
CENTER_NAME    = EARTH
REF_FRAME      = TEME
TIME_SYSTEM    = UTC
MEAN_ELEMENT_THEORY = SGP/SGP4

EPOCH          = 2026-01-07T12:00:01.999296
MEAN_MOTION    = 15.52486362
ECCENTRICITY   = .0003015
INCLINATION    = 69.9999
RA_OF_ASC_NODE = 335.0693
ARG_OF_PERICENTER = 270.1599
MEAN_ANOMALY   = 351.8303

EPHEMERIS_TYPE = 0
CLASSIFICATION_TYPE = U
NORAD_CAT_ID   = 67199
ELEMENT_SET_NO = 999
REV_AT_EPOCH   = 460
BSTAR          = .37776E-3
MEAN_MOTION_DOT = .23112E-3
MEAN_MOTION_DDOT = 0

CCSDS_OMM_VERS = 2.0
CREATION_DATE  = 
ORIGINATOR     = 

OBJECT_NAME    = STARLINK-36270
OBJECT_ID      = 2025-304J
CENTER_NAME    = EARTH
REF_FRAME      = TEME
TIME_SYSTEM    = UTC
MEAN_ELEMENT_THEORY = SGP/SGP4

EPOCH          = 2026-01-07T12:00:01.999296
MEAN_MOTION    = 15.43731987
ECCENTRICITY   = .0003338
INCLINATION    = 69.9996
RA_OF_ASC_NODE = 335.1019
ARG_OF_PERICENTER = 280.1850
MEAN_ANOMALY   = 314.4406

EPHEMERIS_TYPE = 0
CLASSIFICATION_TYPE = U
NORAD_CAT_ID   = 67200
ELEMENT_SET_NO = 999
REV_AT_EPOCH   = 460
BSTAR          = -.35187E-1
MEAN_MOTION_DOT = -.1448044E-1
MEAN_MOTION_DDOT = 0

CCSDS_OMM_VERS = 2.0
CREATION_DATE  = 
ORIGINATOR     = 

OBJECT_NAME    = STARLINK-36262
OBJECT_ID      = 2025-304K
CENTER_NAME    = EARTH
REF_FRAME      = TEME
TIME_SYSTEM    = UTC
MEAN_ELEMENT_THEORY = SGP/SGP4

EPOCH          = 2026-01-07T12:00:01.999296
MEAN_MOTION    = 15.49502243
ECCENTRICITY   = .000309
INCLINATION    = 69.9997
RA_OF_ASC_NODE = 335.0704
ARG_OF_PERICENTER = 269.7635
MEAN_ANOMALY   = 352.3127

EPHEMERIS_TYPE = 0
CLASSIFICATION_TYPE = U
NORAD_CAT_ID   = 67201
ELEMENT_SET_NO = 999
REV_AT_EPOCH   = 460
BSTAR          = -.42585E-1
MEAN_MOTION_DOT = -.2092538E-1
MEAN_MOTION_DDOT = 0

CCSDS_OMM_VERS = 2.0
CREATION_DATE  = 
ORIGINATOR     = 

OBJECT_NAME    = STARLINK-36263
OBJECT_ID      = 2025-304L
CENTER_NAME    = EARTH
REF_FRAME      = TEME
TIME_SYSTEM    = UTC
MEAN_ELEMENT_THEORY = SGP/SGP4

EPOCH          = 2026-01-07T12:00:01.999296
MEAN_MOTION    = 15.52586348
ECCENTRICITY   = .000321
INCLINATION    = 70.0000
RA_OF_ASC_NODE = 335.0637
ARG_OF_PERICENTER = 272.5898
MEAN_ANOMALY   = 355.1014

EPHEMERIS_TYPE = 0
CLASSIFICATION_TYPE = U
NORAD_CAT_ID   = 67202
ELEMENT_SET_NO = 999
REV_AT_EPOCH   = 460
BSTAR          = -.19865E-2
MEAN_MOTION_DOT = -.120834E-2
MEAN_MOTION_DDOT = 0

CCSDS_OMM_VERS = 2.0
CREATION_DATE  = 
ORIGINATOR     = 

OBJECT_NAME    = STARLINK-36224
OBJECT_ID      = 2025-304M
CENTER_NAME    = EARTH
REF_FRAME      = TEME
TIME_SYSTEM    = UTC
MEAN_ELEMENT_THEORY = SGP/SGP4

EPOCH          = 2026-01-07T12:00:01.999296
MEAN_MOTION    = 15.52491100
ECCENTRICITY   = .0003199
INCLINATION    = 69.9997
RA_OF_ASC_NODE = 335.0606
ARG_OF_PERICENTER = 275.4618
MEAN_ANOMALY   = 354.1926

EPHEMERIS_TYPE = 0
CLASSIFICATION_TYPE = U
NORAD_CAT_ID   = 67203
ELEMENT_SET_NO = 999
REV_AT_EPOCH   = 460
BSTAR          = .26173E-3
MEAN_MOTION_DOT = .1595E-3
MEAN_MOTION_DDOT = 0

CCSDS_OMM_VERS = 2.0
CREATION_DATE  = 
ORIGINATOR     = 

OBJECT_NAME    = STARLINK-36185
OBJECT_ID      = 2025-304N
CENTER_NAME    = EARTH
REF_FRAME      = TEME
TIME_SYSTEM    = UTC
MEAN_ELEMENT_THEORY = SGP/SGP4

EPOCH          = 2026-01-07T12:00:01.999296
MEAN_MOTION    = 15.52488399
ECCENTRICITY   = .0003128
INCLINATION    = 69.9999
RA_OF_ASC_NODE = 335.0576
ARG_OF_PERICENTER = 272.2241
MEAN_ANOMALY   = 359.3425

EPHEMERIS_TYPE = 0
CLASSIFICATION_TYPE = U
NORAD_CAT_ID   = 67204
ELEMENT_SET_NO = 999
REV_AT_EPOCH   = 460
BSTAR          = .45E-3
MEAN_MOTION_DOT = .27582E-3
MEAN_MOTION_DDOT = 0

CCSDS_OMM_VERS = 2.0
CREATION_DATE  = 
ORIGINATOR     = 

OBJECT_NAME    = STARLINK-36197
OBJECT_ID      = 2025-304P
CENTER_NAME    = EARTH
REF_FRAME      = TEME
TIME_SYSTEM    = UTC
MEAN_ELEMENT_THEORY = SGP/SGP4

EPOCH          = 2026-01-07T12:00:01.999296
MEAN_MOTION    = 15.52489268
ECCENTRICITY   = .0003184
INCLINATION    = 69.9997
RA_OF_ASC_NODE = 335.0556
ARG_OF_PERICENTER = 273.3675
MEAN_ANOMALY   = 0.1165

EPHEMERIS_TYPE = 0
CLASSIFICATION_TYPE = U
NORAD_CAT_ID   = 67205
ELEMENT_SET_NO = 999
REV_AT_EPOCH   = 457
BSTAR          = .38397E-3
MEAN_MOTION_DOT = .23499E-3
MEAN_MOTION_DDOT = 0

CCSDS_OMM_VERS = 2.0
CREATION_DATE  = 
ORIGINATOR     = 

OBJECT_NAME    = STARLINK-36056
OBJECT_ID      = 2025-304Q
CENTER_NAME    = EARTH
REF_FRAME      = TEME
TIME_SYSTEM    = UTC
MEAN_ELEMENT_THEORY = SGP/SGP4

EPOCH          = 2026-01-07T12:00:01.999296
MEAN_MOTION    = 15.52495977
ECCENTRICITY   = .0003373
INCLINATION    = 69.9999
RA_OF_ASC_NODE = 335.0537
ARG_OF_PERICENTER = 275.0554
MEAN_ANOMALY   = 0.3400

EPHEMERIS_TYPE = 0
CLASSIFICATION_TYPE = U
NORAD_CAT_ID   = 67206
ELEMENT_SET_NO = 999
REV_AT_EPOCH   = 457
BSTAR          = .2271E-3
MEAN_MOTION_DOT = .13816E-3
MEAN_MOTION_DDOT = 0

CCSDS_OMM_VERS = 2.0
CREATION_DATE  = 
ORIGINATOR     = 

OBJECT_NAME    = STARLINK-36225
OBJECT_ID      = 2025-304R
CENTER_NAME    = EARTH
REF_FRAME      = TEME
TIME_SYSTEM    = UTC
MEAN_ELEMENT_THEORY = SGP/SGP4

EPOCH          = 2026-01-07T12:00:01.999296
MEAN_MOTION    = 15.52488174
ECCENTRICITY   = .0003168
INCLINATION    = 69.9999
RA_OF_ASC_NODE = 335.0507
ARG_OF_PERICENTER = 269.8934
MEAN_ANOMALY   = 7.4228

EPHEMERIS_TYPE = 0
CLASSIFICATION_TYPE = U
NORAD_CAT_ID   = 67207
ELEMENT_SET_NO = 999
REV_AT_EPOCH   = 460
BSTAR          = .48976E-3
MEAN_MOTION_DOT = .30043E-3
MEAN_MOTION_DDOT = 0

