STARLINK-36239          
1 67196U 25304E   26007.50002314 -.02080704  00000+0 -44776-1 0  9994
2 67196  69.9995 335.0842 0002971 272.7938 334.8232 15.47899348  4603
STARLINK-36283          
1 67197U 25304F   26007.50002314 -.00102051  00000+0 -16749-2 0  9993
2 67197  69.9999 335.0728 0002804 266.3116 353.7289 15.52562464  4607
STARLINK-36267          
1 67198U 25304G   26007.50002314  .00023064  00000+0  37695-3 0  9992
2 67198  69.9999 335.0738 0002894 269.2407 348.9128 15.52489095  4575
STARLINK-36268          
1 67199U 25304H   26007.50002314  .00023112  00000+0  37776-3 0  9997
2 67199  69.9999 335.0693 0003015 270.1599 351.8303 15.52486362  4601
STARLINK-36270          
1 67200U 25304J   26007.50002314 -.01448044  00000+0 -35187-1 0  9990
2 67200  69.9996 335.1019 0003338 280.1850 314.4406 15.43731987  4608
STARLINK-36262          
1 67201U 25304K   26007.50002314 -.02092538  00000+0 -42585-1 0  9995
2 67201  69.9997 335.0704 0003090 269.7635 352.3127 15.49502243  4607
STARLINK-36263          
1 67202U 25304L   26007.50002314 -.00120834  00000+0 -19865-2 0  9991
2 67202  70.0000 335.0637 0003210 272.5898 355.1014 15.52586348  4606
STARLINK-36224          
1 67203U 25304M   26007.50002314  .00015950  00000+0  26173-3 0  9993
2 67203  69.9997 335.0606 0003199 275.4618 354.1926 15.52491100  4605
STARLINK-36185          
1 67204U 25304N   26007.50002314  .00027582  00000+0  45000-3 0  9998
2 67204  69.9999 335.0576 0003128 272.2241 359.3425 15.52488399  4600
STARLINK-36197          
1 67205U 25304P   26007.50002314  .00023499  00000+0  38397-3 0  9993
2 67205  69.9997 335.0556 0003184 273.3675   0.1165 15.52489268  4576
STARLINK-36056          
1 67206U 25304Q   26007.50002314  .00013816  00000+0  22710-3 0  9998
2 67206  69.9999 335.0537 0003373 275.0554   0.3400 15.52495977  4571
STARLINK-36225          
1 67207U 25304R   26007.50002314  .00030043  00000+0  48976-3 0  9992
2 67207  69.9999 335.0507 0003168 269.8934   7.4228 15.52488174  4605
